ONEWEB-0306             
1 49188U 21083C   24069.43415877  .00003002  00000+0  75821-2 0  9993
2 49188  87.9209 140.6003 0002559 100.8079 259.3342 13.18670878120669
ONEWEB-0307             
1 49189U 21083D   24069.58475455  .00000131  00000+0  32289-3 0  9990
2 49189  87.8954 125.4047 0001976 100.1838 259.9514 13.13472153122023
ONEWEB-0320             
1 49190U 21083E   24069.44048619  .00000049  00000+0  91938-4 0  9990
2 49190  87.9208 140.6215 0001908 103.0258 257.1087 13.18688162120620
ONEWEB-0321             
1 49191U 21083F   24069.51256859  .00000129  00000+0  28416-3 0  9995
2 49191  87.9126  79.5544 0001779  81.8049 278.3286 13.20772836127316
ONEWEB-0322             
1 49192U 21083G   24069.42841413  .00000047  00000+0  93271-4 0  9993
2 49192  87.8954 125.4250 0001539  92.0707 268.0598 13.13469238121990
ONEWEB-0324             
1 49193U 21083H   24069.42624278  .00000064  00000+0  13051-3 0  9998
2 49193  87.9209 140.6071 0001887 113.8201 246.3129 13.18687502120643
ONEWEB-0325             
1 49194U 21083J   24069.43099542 -.00000097  00000+0 -27941-3 0  9991
2 49194  87.9211 140.6191 0001958 102.0458 258.0893 13.18684925120658
ONEWEB-0326             
1 49195U 21083K   24069.44520974  .00000073  00000+0  15235-3 0  9996
2 49195  87.9210 140.6174 0002504 112.2622 247.8776 13.18687890120642
